STARLINK-1709
1 16561C 20070AF  21326.14985303  .00001932  00000-0  12941-3 0  3267
2 16561  53.0552   3.0772 0001629  59.0350  98.8504 15.06403149    11
